XRISM                   
1 57800U 23137A   24182.72501911  .00006176  00000+0  46116-3 0  9999
2 57800  31.0032 286.4304 0009565 343.6856  16.3471 15.01379641 44645
